[{"OBJECT_NAME":"DUPLEX","OBJECT_ID":"1998-067XS","EPOCH":"2026-03-28T23:19:03.065664","MEAN_MOTION":15.57505635,"ECCENTRICITY":0.0002979,"INCLINATION":51.6302,"RA_OF_ASC_NODE":332.917,"ARG_OF_PERICENTER":200.7419,"MEAN_ANOMALY":159.3453,"EPHEMERIS_TYPE":0,"CLASSIFICATION_TYPE":"U","NORAD_CAT_ID":66906,"ELEMENT_SET_NO":999,"REV_AT_EPOCH":1813,"BSTAR":0.00045468,"MEAN_MOTION_DOT":0.00033749,"MEAN_MOTION_DDOT":0},{"OBJECT_NAME":"ISS OBJECT XT","OBJECT_ID":"1998-067XT","EPOCH":"2026-03-29T00:39:43.520256","MEAN_MOTION":15.76429698,"ECCENTRICITY":0.0006045,"INCLINATION":51.6243,"RA_OF_ASC_NODE":326.5038,"ARG_OF_PERICENTER":205.147,"MEAN_ANOMALY":154.9236,"EPHEMERIS_TYPE":0,"CLASSIFICATION_TYPE":"U","NORAD_CAT_ID":66907,"ELEMENT_SET_NO":999,"REV_AT_EPOCH":1822,"BSTAR":0.0014473,"MEAN_MOTION_DOT":0.00240433,"MEAN_MOTION_DDOT":0},{"OBJECT_NAME":"ISS OBJECT XU","OBJECT_ID":"1998-067XU","EPOCH":"2026-03-29T00:34:12.711072","MEAN_MOTION":15.7669169,"ECCENTRICITY":0.0006285,"INCLINATION":51.6247,"RA_OF_ASC_NODE":326.4734,"ARG_OF_PERICENTER":205.0225,"MEAN_ANOMALY":155.0471,"EPHEMERIS_TYPE":0,"CLASSIFICATION_TYPE":"U","NORAD_CAT_ID":66908,"ELEMENT_SET_NO":999,"REV_AT_EPOCH":1822,"BSTAR":0.0014811,"MEAN_MOTION_DOT":0.00249218,"MEAN_MOTION_DDOT":0},{"OBJECT_NAME":"SILVERSAT","OBJECT_ID":"1998-067XV","EPOCH":"2026-03-29T00:57:48.042432","MEAN_MOTION":15.82009112,"ECCENTRICITY":0.0007067,"INCLINATION":51.6214,"RA_OF_ASC_NODE":325.0706,"ARG_OF_PERICENTER":211.1784,"MEAN_ANOMALY":148.8799,"EPHEMERIS_TYPE":0,"CLASSIFICATION_TYPE":"U","NORAD_CAT_ID":66909,"ELEMENT_SET_NO":999,"REV_AT_EPOCH":1824,"BSTAR":0.0016517,"MEAN_MOTION_DOT":0.00358553,"MEAN_MOTION_DDOT":0},{"OBJECT_NAME":"ISS OBJECT XW","OBJECT_ID":"1998-067XW","EPOCH":"2026-03-29T00:50:14.989344","MEAN_MOTION":15.74966999,"ECCENTRICITY":0.0006342,"INCLINATION":51.6232,"RA_OF_ASC_NODE":326.5457,"ARG_OF_PERICENTER":202.5338,"MEAN_ANOMALY":157.5384,"EPHEMERIS_TYPE":0,"CLASSIFICATION_TYPE":"U","NORAD_CAT_ID":66910,"ELEMENT_SET_NO":999,"REV_AT_EPOCH":1822,"BSTAR":0.001371,"MEAN_MOTION_DOT":0.00212904,"MEAN_MOTION_DDOT":0},{"OBJECT_NAME":"ISS OBJECT XX","OBJECT_ID":"1998-067XX","EPOCH":"2026-03-29T01:03:10.863936","MEAN_MOTION":15.88734318,"ECCENTRICITY":0.0008896,"INCLINATION":51.6187,"RA_OF_ASC_NODE":323.5595,"ARG_OF_PERICENTER":215.9725,"MEAN_ANOMALY":144.0682,"EPHEMERIS_TYPE":0,"CLASSIFICATION_TYPE":"U","NORAD_CAT_ID":66911,"ELEMENT_SET_NO":999,"REV_AT_EPOCH":1825,"BSTAR":0.001809,"MEAN_MOTION_DOT":0.00556003,"MEAN_MOTION_DDOT":0},{"OBJECT_NAME":"ISS OBJECT XY","OBJECT_ID":"1998-067XY","EPOCH":"2026-03-29T01:11:41.978688","MEAN_MOTION":15.67649545,"ECCENTRICITY":0.000432,"INCLINATION":51.627,"RA_OF_ASC_NODE":328.9267,"ARG_OF_PERICENTER":201.5459,"MEAN_ANOMALY":158.5356,"EPHEMERIS_TYPE":0,"CLASSIFICATION_TYPE":"U","NORAD_CAT_ID":66912,"ELEMENT_SET_NO":999,"REV_AT_EPOCH":1818,"BSTAR":0.0010294,"MEAN_MOTION_DOT":0.00115852,"MEAN_MOTION_DDOT":0},{"OBJECT_NAME":"KNACKSAT-2","OBJECT_ID":"1998-067XZ","EPOCH":"2026-03-28T21:47:51.759744","MEAN_MOTION":15.53414385,"ECCENTRICITY":0.0010006,"INCLINATION":51.6324,"RA_OF_ASC_NODE":336.2444,"ARG_OF_PERICENTER":255.4599,"MEAN_ANOMALY":104.5282,"EPHEMERIS_TYPE":0,"CLASSIFICATION_TYPE":"U","NORAD_CAT_ID":67683,"ELEMENT_SET_NO":999,"REV_AT_EPOCH":777,"BSTAR":0.00071242,"MEAN_MOTION_DOT":0.00045826,"MEAN_MOTION_DDOT":0},{"OBJECT_NAME":"CORAL","OBJECT_ID":"1998-067YA","EPOCH":"2026-03-29T02:19:26.988096","MEAN_MOTION":15.57621813,"ECCENTRICITY":0.0012778,"INCLINATION":51.6305,"RA_OF_ASC_NODE":334.5038,"ARG_OF_PERICENTER":245.56,"MEAN_ANOMALY":114.4059,"EPHEMERIS_TYPE":0,"CLASSIFICATION_TYPE":"U","NORAD_CAT_ID":67684,"ELEMENT_SET_NO":999,"REV_AT_EPOCH":781,"BSTAR":0.0012606,"MEAN_MOTION_DOT":0.00095932,"MEAN_MOTION_DDOT":0},{"OBJECT_NAME":"GXIBA-1","OBJECT_ID":"1998-067YB","EPOCH":"2026-03-29T02:11:14.324064","MEAN_MOTION":15.53980859,"ECCENTRICITY":0.0011973,"INCLINATION":51.6326,"RA_OF_ASC_NODE":335.2157,"ARG_OF_PERICENTER":252.9526,"MEAN_ANOMALY":107.0153,"EPHEMERIS_TYPE":0,"CLASSIFICATION_TYPE":"U","NORAD_CAT_ID":67685,"ELEMENT_SET_NO":999,"REV_AT_EPOCH":780,"BSTAR":0.00079625,"MEAN_MOTION_DOT":0.00052441,"MEAN_MOTION_DDOT":0},{"OBJECT_NAME":"UITMSAT-2","OBJECT_ID":"1998-067YC","EPOCH":"2026-03-29T01:49:58.347264","MEAN_MOTION":15.54935303,"ECCENTRICITY":0.00091,"INCLINATION":51.6323,"RA_OF_ASC_NODE":335.1195,"ARG_OF_PERICENTER":224.8409,"MEAN_ANOMALY":135.1847,"EPHEMERIS_TYPE":0,"CLASSIFICATION_TYPE":"U","NORAD_CAT_ID":67686,"ELEMENT_SET_NO":999,"REV_AT_EPOCH":780,"BSTAR":0.00089979,"MEAN_MOTION_DOT":0.00061436,"MEAN_MOTION_DDOT":0},{"OBJECT_NAME":"HMU-SAT2","OBJECT_ID":"1998-067YD","EPOCH":"2026-03-28T23:13:09.401088","MEAN_MOTION":15.53712638,"ECCENTRICITY":0.0008608,"INCLINATION":51.6327,"RA_OF_ASC_NODE":335.8929,"ARG_OF_PERICENTER":227.2512,"MEAN_ANOMALY":132.7755,"EPHEMERIS_TYPE":0,"CLASSIFICATION_TYPE":"U","NORAD_CAT_ID":67687,"ELEMENT_SET_NO":999,"REV_AT_EPOCH":770,"BSTAR":0.00078829,"MEAN_MOTION_DOT":0.00051323,"MEAN_MOTION_DDOT":0},{"OBJECT_NAME":"LEOPARD","OBJECT_ID":"1998-067YE","EPOCH":"2026-03-28T22:54:31.520736","MEAN_MOTION":15.54486105,"ECCENTRICITY":0.0008819,"INCLINATION":51.6331,"RA_OF_ASC_NODE":335.8065,"ARG_OF_PERICENTER":224.9163,"MEAN_ANOMALY":135.1115,"EPHEMERIS_TYPE":0,"CLASSIFICATION_TYPE":"U","NORAD_CAT_ID":67688,"ELEMENT_SET_NO":999,"REV_AT_EPOCH":770,"BSTAR":0.0008474,"MEAN_MOTION_DOT":0.00056841,"MEAN_MOTION_DDOT":0},{"OBJECT_NAME":"CREW DRAGON 12","OBJECT_ID":"2026-031A","EPOCH":"2026-03-29T03:11:03.043104","MEAN_MOTION":15.4862434,"ECCENTRICITY":0.0006215,"INCLINATION":51.6344,"RA_OF_ASC_NODE":336.2407,"ARG_OF_PERICENTER":245.2164,"MEAN_ANOMALY":114.8178,"EPHEMERIS_TYPE":0,"CLASSIFICATION_TYPE":"U","NORAD_CAT_ID":67796,"ELEMENT_SET_NO":999,"REV_AT_EPOCH":55930,"BSTAR":0.00023326,"MEAN_MOTION_DOT":0.0001226,"MEAN_MOTION_DDOT":0},{"OBJECT_NAME":"PROGRESS-MS 33","OBJECT_ID":"2026-058A","EPOCH":"2026-03-29T03:11:03.043104","MEAN_MOTION":15.4862434,"ECCENTRICITY":0.0006215,"INCLINATION":51.6344,"RA_OF_ASC_NODE":336.2407,"ARG_OF_PERICENTER":245.2164,"MEAN_ANOMALY":114.8178,"EPHEMERIS_TYPE":0,"CLASSIFICATION_TYPE":"U","NORAD_CAT_ID":68319,"ELEMENT_SET_NO":999,"REV_AT_EPOCH":81,"BSTAR":0.00023326,"MEAN_MOTION_DOT":0.0001226,"MEAN_MOTION_DDOT":0}]
